[{"OBJECT_NAME":"LYRA-4","OBJECT_ID":"2025-140A","EPOCH":"2026-03-09T22:14:48.302880","MEAN_MOTION":14.72230607,"ECCENTRICITY":0.00130646,"INCLINATION":95.9893,"RA_OF_ASC_NODE":215.2508,"ARG_OF_PERICENTER":170.6132,"MEAN_ANOMALY":189.5328,"EPHEMERIS_TYPE":0,"CLASSIFICATION_TYPE":"U","NORAD_CAT_ID":64691,"ELEMENT_SET_NO":999,"REV_AT_EPOCH":3745,"BSTAR":0.00032811988,"MEAN_MOTION_DOT":2.043e-5,"MEAN_MOTION_DDOT":0},{"OBJECT_NAME":"FENGYUN 1C DEB","OBJECT_ID":"1999-025ACM","EPOCH":"2026-03-09T22:05:42.396576","MEAN_MOTION":14.62861108,"ECCENTRICITY":0.00384052,"INCLINATION":99.2682,"RA_OF_ASC_NODE":308.0144,"ARG_OF_PERICENTER":265.9105,"MEAN_ANOMALY":217.1704,"EPHEMERIS_TYPE":0,"CLASSIFICATION_TYPE":"U","NORAD_CAT_ID":30374,"ELEMENT_SET_NO":999,"REV_AT_EPOCH":195,"BSTAR":0.0014174741,"MEAN_MOTION_DOT":7.266e-5,"MEAN_MOTION_DDOT":0}]
